     2.100          NAVIGATION                              RINEX VERSION / TYPE
fic2rin                                 06/09/2009 02:00:45 PGM / RUN BY / DATE
                                                            END OF HEADER
18 09  6  8  8  0  0.0 -.500334426761D-04  .318323145621D-11  .000000000000D+00
     .960000000000D+02  .127593750000D+03  .468662378812D-08  .903313607438D+00
     .687688589096D-05  .104611580027D-01  .903010368347D-05  .515361134338D+04
     .115200000000D+06 -.856816768646D-07  .430487373356D+00  .115483999252D-06
     .942560838037D+00  .196250000000D+03 -.241835439725D+01 -.821177062464D-08
    -.261082303697D-09  .100000000000D+01  .153500000000D+04  .000000000000D+00
     .240000000000D+01  .000000000000D+00 -.107102096081D-07  .960000000000D+02
     .108006000000D+06  .400000000000D+01
19 09  6  8  8  0  0.0  .231997109950D-04 -.125055521494D-11  .000000000000D+00
     .810000000000D+02  .590625000000D+01  .513449958680D-08 -.100887258122D+01
     .670552253723D-07  .564440747257D-02  .516884028912D-05  .515360166740D+04
     .115200000000D+06  .223517417908D-07 -.161958135317D+01 -.651925802231D-07
     .956922540351D+00  .276812500000D+03 -.353241964780D+00 -.820391315448D-08
     .288226291496D-09  .100000000000D+01  .153500000000D+04  .000000000000D+00
     .240000000000D+01  .000000000000D+00 -.144354999065D-07  .810000000000D+02
     .108006000000D+06  .400000000000D+01
20 09  6  8  8  0  0.0  .804918818176D-04 -.102318153949D-11  .000000000000D+00
     .270000000000D+02  .108437500000D+03  .465519390751D-08  .104930936171D+01
     .558234751225D-05  .393933069427D-02  .864453613758D-05  .515360286713D+04
     .115200000000D+06 -.838190317154D-07  .376663479260D+00 -.745058059692D-08
     .942236677334D+00  .204187500000D+03  .136399739764D+01 -.806247869174D-08
    -.167864135072D-09  .100000000000D+01  .153500000000D+04  .000000000000D+00
     .240000000000D+01  .000000000000D+00 -.651925802231D-08  .270000000000D+02
     .108006000000D+06  .400000000000D+01
21 09  6  8  8  0  0.0  .955956056714D-05 -.216004991671D-11  .000000000000D+00
     .990000000000D+02 -.484375000000D+01  .527236247220D-08  .218543838369D+01
    -.312924385071D-06  .153487112839D-01  .891089439392D-05  .515360979843D+04
     .115200000000D+06 -.396743416786D-06 -.627321853993D+00 -.126659870148D-06
     .934029945365D+00  .199000000000D+03 -.259500796102D+01 -.810105172704D-08
    -.606810990399D-09  .100000000000D+01  .153500000000D+04  .000000000000D+00
     .240000000000D+01  .000000000000D+00 -.121071934700D-07  .990000000000D+02
     .108006000000D+06  .400000000000D+01
22 09  6  8  8  0  0.0  .198037363589D-03 -.795807864051D-12  .000000000000D+00
     .620000000000D+02  .121843750000D+03  .481341478376D-08 -.131008999725D+00
     .647827982903D-05  .503592507448D-02  .818260014057D-05  .515366533852D+04
     .115200000000D+06 -.298023223877D-07  .436148442076D+00  .149011611938D-07
     .940221930463D+00  .208281250000D+03 -.188593710222D+01 -.822391398760D-08
    -.157863718515D-09  .100000000000D+01  .153500000000D+04  .000000000000D+00
     .485000000000D+01  .000000000000D+00 -.176951289177D-07  .620000000000D+02
     .108006000000D+06  .400000000000D+01
23 09  6  8  8  0  0.0  .390198081732D-03  .000000000000D+00  .000000000000D+00
     .370000000000D+02  .405000000000D+02  .433482341994D-08 -.154708735915D+01
     .206939876080D-05  .616922357585D-02  .681728124619D-06  .515360335922D+04
     .115200000000D+06 -.707805156708D-07  .145427502906D+01 -.204890966415D-07
     .970094433836D+00  .372343750000D+03  .288749593861D+01 -.820177020808D-08
     .925038531568D-10  .100000000000D+01  .153500000000D+04  .000000000000D+00
     .240000000000D+01  .000000000000D+00 -.200234353542D-07  .370000000000D+02
     .108006000000D+06  .400000000000D+01
24 09  6  8  8  0  0.0  .195142347366D-03  .295585778076D-11  .000000000000D+00
     .200000000000D+02  .353125000000D+01  .490306137504D-08  .824830583333D+00
     .109896063805D-06  .668979436159D-02  .869110226631D-05  .515367410851D+04
     .115200000000D+06  .104308128357D-06 -.595005298736D+00 -.130385160446D-06
     .950695231632D+00  .207250000000D+03 -.650061672055D+00 -.798890419850D-08
    -.615739933754D-09  .100000000000D+01  .153500000000D+04  .000000000000D+00
     .240000000000D+01  .000000000000D+00 -.139698386192D-08  .200000000000D+02
     .108006000000D+06  .400000000000D+01
25 09  6  8  8  0  0.0  .452318694443D-03  .181898940355D-10  .000000000000D+00
     .700000000000D+01 -.117062500000D+03  .411731435981D-08  .132199404839D+01
    -.620819628239D-05  .113687107805D-01  .418908894062D-05  .515365231895D+04
     .115200000000D+06  .162050127983D-06  .240215078014D+01 -.275671482086D-06
     .969888874828D+00  .303312500000D+03 -.120833245999D+01 -.801319092442D-08
    -.132862677121D-09  .100000000000D+01  .153500000000D+04  .000000000000D+00
     .240000000000D+01  .000000000000D+00 -.745058059692D-08  .700000000000D+01
     .108006000000D+06  .400000000000D+01
26 09  6  8  8  0  0.0  .632046721876D-04  .909494701773D-12  .000000000000D+00
     .970000000000D+02  .393750000000D+02  .383408827659D-08 -.296459951142D+01
     .203587114811D-05  .204131365754D-01 -.303611159325D-06  .515489398384D+04
     .115200000000D+06  .132247805595D-06  .150419657455D+01 -.214204192162D-06
     .992425636934D+00  .401812500000D+03  .101429494852D+01 -.775925177541D-08
     .728601777760D-10  .100000000000D+01  .153500000000D+04  .000000000000D+00
     .240000000000D+01  .000000000000D+00 -.651925802231D-08  .970000000000D+02
     .108006000000D+06  .400000000000D+01
27 09  6  8  8  0  0.0  .557038001716D-04  .318323145621D-11  .000000000000D+00
     .162000000000D+03 -.123031250000D+03  .406838375023D-08 -.705701383958D+00
    -.625662505627D-05  .212871043477D-01  .517629086971D-05  .515378593445D+04
     .115200000000D+06 -.212341547012D-06  .243857024422D+01  .264495611191D-06
     .974635877222D+00  .293437500000D+03 -.158885822731D+01 -.832463246864D-08
    -.278583032673D-10  .100000000000D+01  .153500000000D+04  .000000000000D+00
     .340000000000D+01  .000000000000D+00 -.419095158577D-08  .162000000000D+03
     .108006000000D+06  .400000000000D+01
28 09  6  8  8  0  0.0 -.253366306424D-04 -.227373675443D-12  .000000000000D+00
     .750000000000D+02 -.384375000000D+02  .418767443345D-08  .121868867505D+00
    -.207498669624D-05  .149005197454D-01  .105593353510D-04  .515364969826D+04
     .115200000000D+06 -.230967998505D-06 -.270981215282D+01  .221654772758D-06
     .966985406686D+00  .184187500000D+03 -.202446258820D+01 -.787211361942D-08
     .595381942905D-09  .100000000000D+01  .153500000000D+04  .000000000000D+00
     .340000000000D+01  .000000000000D+00 -.107102096081D-07  .750000000000D+02
     .108006000000D+06  .400000000000D+01
29 09  6  8  8  0  0.0  .280430540442D-04  .363797880709D-11  .000000000000D+00
     .600000000000D+02  .612500000000D+01  .504056710271D-08  .218916776125D+01
     .223517417908D-06  .341324904002D-02  .546500086784D-05  .515365916443D+04
     .115200000000D+06  .558793544769D-07 -.166742422812D+01 -.428408384323D-07
     .959449014503D+00  .277406250000D+03 -.131693632366D+01 -.800819071614D-08
     .243938732456D-09  .100000000000D+01  .153500000000D+04  .000000000000D+00
     .240000000000D+01  .000000000000D+00 -.884756445885D-08  .600000000000D+02
     .108006000000D+06  .400000000000D+01
30 09  6  8  8  0  0.0  .152160879225D-03  .284217094304D-11  .000000000000D+00
     .280000000000D+02 -.528125000000D+02  .447447209401D-08  .608282361402D+00
    -.290572643280D-05  .114514620509D-01  .102948397398D-04  .515359141731D+04
     .115200000000D+06 -.124797224998D-06 -.278286805952D+01  .130385160446D-07
     .952446060767D+00  .177062500000D+03  .141922080840D+01 -.803426323074D-08
     .499663670140D-09  .100000000000D+01  .153500000000D+04  .000000000000D+00
     .240000000000D+01  .000000000000D+00 -.838190317154D-08  .280000000000D+02
     .108006000000D+06  .400000000000D+01
32 09  6  8  8  0  0.0  .250231940299D-03 -.545696821064D-11  .000000000000D+00
     .770000000000D+02  .125875000000D+03  .403516808095D-08 -.236049921880D+01
     .650808215141D-05  .133122184779D-01  .785477459431D-05  .515356189728D+04
     .115200000000D+06  .614672899246D-07  .486423081862D+00  .238418579102D-06
     .964193986367D+00  .228343750000D+03 -.115982973291D+01 -.759138764034D-08
    -.102504269714D-09  .100000000000D+01  .153500000000D+04  .000000000000D+00
     .240000000000D+01  .000000000000D+00 -.325962901115D-08  .770000000000D+02
     .108006000000D+06  .400000000000D+01
10 09  6  8  7 59 44.0 -.172103755176D-04 -.568434188608D-12  .000000000000D+00
     .250000000000D+02  .129843750000D+03  .431553690229D-08 -.487917519975D+00
     .668130815029D-05  .858033576515D-02  .827573239803D-05  .515362313271D+04
     .115184000000D+06  .428408384323D-07  .425219076196D+00  .113621354103D-06
     .958523813907D+00  .218000000000D+03  .625377096049D+00 -.800747640068D-08
    -.182150444440D-09  .100000000000D+01  .153500000000D+04  .000000000000D+00
     .240000000000D+01  .000000000000D+00 -.279396772385D-08  .250000000000D+02
     .109236000000D+06  .400000000000D+01
17 09  6  8  7 59 44.0  .632824376225D-04  .227373675443D-11  .000000000000D+00
     .400000000000D+01  .534375000000D+01  .509735518245D-08 -.401851634094D+00
     .413507223129D-06  .452623830643D-02  .530667603016D-05  .515367929459D+04
     .115184000000D+06  .167638063431D-07 -.167562799768D+01  .633299350739D-07
     .959223201394D+00  .277500000000D+03 -.263871071783D+01 -.812390982202D-08
     .269654089318D-09  .100000000000D+01  .153500000000D+04  .000000000000D+00
     .240000000000D+01  .000000000000D+00 -.102445483208D-07  .400000000000D+01
     .110886000000D+06  .400000000000D+01
